SL-14 R/B               
1 21423U 91042B   26002.85120714  .00000852  00000+0  10478-3 0  9993
2 21423  82.4936 281.9285 0018570  96.7069 263.6259 14.81762991843320
ERS-1                   
1 21574U 91050A   26002.93880152  .00000681  00000+0  23248-3 0  9996
2 21574  98.7896  19.5232 0032631  38.7883 321.5638 14.39385416806277
ARIANE 40 R/B           
1 21610U 91050F   26002.86860122  .00000710  00000+0  22542-3 0  9993
2 21610  98.2135  57.5336 0001986 273.6606  86.4358 14.42834502809502
INTERCOSMOS 25          
1 21819U 91086A   26002.93619412  .00002279  00000+0  45403-3 0  9998
2 21819  82.6075 349.7534 1485979 258.6786  84.4257 12.11818191488723
SL-8 R/B                
1 21876U 92008B   26002.98755307  .00000143  00000+0  13126-3 0  9990
2 21876  82.9281 316.6428 0033925 320.1140 110.9075 13.75964143700383
SL-8 R/B                
1 21938U 92020B   26002.94608208  .00000248  00000+0  24044-3 0  9993
2 21938  82.9291 202.5695 0030047 120.1785 352.5138 13.75533976692095
USA 81                  
1 21949U 92023A   26002.92202824  .00000395  00000+0  13894-3 0  9994
2 21949  85.0091 169.3598 0001124 107.4180 252.7136 14.32337217 85372
COSMOS 2219             
1 22219U 92076A   26002.80489054  .00000396  00000+0  23238-3 0  9996
2 22219  71.0602 155.7977 0020010 297.7534  62.1558 14.14076194709061
SL-16 R/B               
1 22220U 92076B   26002.96723742 -.00000103  00000+0 -27631-4 0  9990
2 22220  71.0010 326.8157 0013767 205.2828 212.3063 14.16845499712527
COSMOS 2221             
1 22236U 92080A   26002.95678590  .00004284  00000+0  38018-3 0  9993
2 22236  82.5045 342.0148 0016002  57.2177 303.0584 14.95869812770966
SL-16 R/B               
1 22285U 92093B   26002.80400175 -.00000124  00000+0 -39150-4 0  9997
2 22285  71.0212 142.5785 0002971  12.4413 347.6783 14.15434505703831
COSMOS 2228             
1 22286U 92094A   26002.94921343  .00004488  00000+0  38809-3 0  9993
2 22286  82.5195 300.2405 0018456 157.7413 202.4615 14.96850580766227
