CCSDS_OMM_VERS = 2.0
CREATION_DATE  = 
ORIGINATOR     = 

OBJECT_NAME    = SL-14 R/B
OBJECT_ID      = 1991-042B
CENTER_NAME    = EARTH
REF_FRAME      = TEME
TIME_SYSTEM    = UTC
MEAN_ELEMENT_THEORY = SGP/SGP4

EPOCH          = 2026-01-02T20:25:44.296896
MEAN_MOTION    = 14.81762991
ECCENTRICITY   = .00185703
INCLINATION    = 82.4936
RA_OF_ASC_NODE = 281.9285
ARG_OF_PERICENTER = 96.7069
MEAN_ANOMALY   = 263.6259

EPHEMERIS_TYPE = 0
CLASSIFICATION_TYPE = U
NORAD_CAT_ID   = 21423
ELEMENT_SET_NO = 999
REV_AT_EPOCH   = 84332
BSTAR          = .10477909E-3
MEAN_MOTION_DOT = .852E-5
MEAN_MOTION_DDOT = 0

CCSDS_OMM_VERS = 2.0
CREATION_DATE  = 
ORIGINATOR     = 

OBJECT_NAME    = ERS-1
OBJECT_ID      = 1991-050A
CENTER_NAME    = EARTH
REF_FRAME      = TEME
TIME_SYSTEM    = UTC
MEAN_ELEMENT_THEORY = SGP/SGP4

EPOCH          = 2026-01-02T22:31:52.451328
MEAN_MOTION    = 14.39385416
ECCENTRICITY   = .00326319
INCLINATION    = 98.7896
RA_OF_ASC_NODE = 19.5232
ARG_OF_PERICENTER = 38.7883
MEAN_ANOMALY   = 321.5638

EPHEMERIS_TYPE = 0
CLASSIFICATION_TYPE = U
NORAD_CAT_ID   = 21574
ELEMENT_SET_NO = 999
REV_AT_EPOCH   = 80627
BSTAR          = .232485E-3
MEAN_MOTION_DOT = .681E-5
MEAN_MOTION_DDOT = 0

CCSDS_OMM_VERS = 2.0
CREATION_DATE  = 
ORIGINATOR     = 

OBJECT_NAME    = ARIANE 40 R/B
OBJECT_ID      = 1991-050F
CENTER_NAME    = EARTH
REF_FRAME      = TEME
TIME_SYSTEM    = UTC
MEAN_ELEMENT_THEORY = SGP/SGP4

EPOCH          = 2026-01-02T20:50:47.145408
MEAN_MOTION    = 14.42834502
ECCENTRICITY   = .00019864
INCLINATION    = 98.2135
RA_OF_ASC_NODE = 57.5336
ARG_OF_PERICENTER = 273.6606
MEAN_ANOMALY   = 86.4358

EPHEMERIS_TYPE = 0
CLASSIFICATION_TYPE = U
NORAD_CAT_ID   = 21610
ELEMENT_SET_NO = 999
REV_AT_EPOCH   = 80950
BSTAR          = .22542219E-3
MEAN_MOTION_DOT = .71E-5
MEAN_MOTION_DDOT = 0

CCSDS_OMM_VERS = 2.0
CREATION_DATE  = 
ORIGINATOR     = 

OBJECT_NAME    = INTERCOSMOS 25
OBJECT_ID      = 1991-086A
CENTER_NAME    = EARTH
REF_FRAME      = TEME
TIME_SYSTEM    = UTC
MEAN_ELEMENT_THEORY = SGP/SGP4

EPOCH          = 2026-01-02T22:28:07.171968
MEAN_MOTION    = 12.11818191
ECCENTRICITY   = .14859796
INCLINATION    = 82.6075
RA_OF_ASC_NODE = 349.7534
ARG_OF_PERICENTER = 258.6786
MEAN_ANOMALY   = 84.4257

EPHEMERIS_TYPE = 0
CLASSIFICATION_TYPE = U
NORAD_CAT_ID   = 21819
ELEMENT_SET_NO = 999
REV_AT_EPOCH   = 48872
BSTAR          = .45402634E-3
MEAN_MOTION_DOT = .2279E-4
MEAN_MOTION_DDOT = 0

CCSDS_OMM_VERS = 2.0
CREATION_DATE  = 
ORIGINATOR     = 

OBJECT_NAME    = SL-8 R/B
OBJECT_ID      = 1992-008B
CENTER_NAME    = EARTH
REF_FRAME      = TEME
TIME_SYSTEM    = UTC
MEAN_ELEMENT_THEORY = SGP/SGP4

EPOCH          = 2026-01-02T23:42:04.585248
MEAN_MOTION    = 13.75964143
ECCENTRICITY   = .00339252
INCLINATION    = 82.9281
RA_OF_ASC_NODE = 316.6428
ARG_OF_PERICENTER = 320.1140
MEAN_ANOMALY   = 110.9075

EPHEMERIS_TYPE = 0
CLASSIFICATION_TYPE = U
NORAD_CAT_ID   = 21876
ELEMENT_SET_NO = 999
REV_AT_EPOCH   = 70038
BSTAR          = .13126459E-3
MEAN_MOTION_DOT = .143E-5
MEAN_MOTION_DDOT = 0

CCSDS_OMM_VERS = 2.0
CREATION_DATE  = 
ORIGINATOR     = 

OBJECT_NAME    = SL-8 R/B
OBJECT_ID      = 1992-020B
CENTER_NAME    = EARTH
REF_FRAME      = TEME
TIME_SYSTEM    = UTC
MEAN_ELEMENT_THEORY = SGP/SGP4

EPOCH          = 2026-01-02T22:42:21.491712
MEAN_MOTION    = 13.75533976
ECCENTRICITY   = .00300474
INCLINATION    = 82.9291
RA_OF_ASC_NODE = 202.5695
ARG_OF_PERICENTER = 120.1785
MEAN_ANOMALY   = 352.5138

EPHEMERIS_TYPE = 0
CLASSIFICATION_TYPE = U
NORAD_CAT_ID   = 21938
ELEMENT_SET_NO = 999
REV_AT_EPOCH   = 69209
BSTAR          = .24044444E-3
MEAN_MOTION_DOT = .248E-5
MEAN_MOTION_DDOT = 0

CCSDS_OMM_VERS = 2.0
CREATION_DATE  = 
ORIGINATOR     = 

OBJECT_NAME    = USA 81
OBJECT_ID      = 1992-023A
CENTER_NAME    = EARTH
REF_FRAME      = TEME
TIME_SYSTEM    = UTC
MEAN_ELEMENT_THEORY = SGP/SGP4

EPOCH          = 2026-01-02T22:07:43.239936
MEAN_MOTION    = 14.32337217
ECCENTRICITY   = .00011246
INCLINATION    = 85.0091
RA_OF_ASC_NODE = 169.3598
ARG_OF_PERICENTER = 107.4180
MEAN_ANOMALY   = 252.7136

EPHEMERIS_TYPE = 0
CLASSIFICATION_TYPE = U
NORAD_CAT_ID   = 21949
ELEMENT_SET_NO = 999
REV_AT_EPOCH   = 8537
BSTAR          = .13893736E-3
MEAN_MOTION_DOT = .395E-5
MEAN_MOTION_DDOT = 0

CCSDS_OMM_VERS = 2.0
CREATION_DATE  = 
ORIGINATOR     = 

OBJECT_NAME    = COSMOS 2219
OBJECT_ID      = 1992-076A
CENTER_NAME    = EARTH
REF_FRAME      = TEME
TIME_SYSTEM    = UTC
MEAN_ELEMENT_THEORY = SGP/SGP4

EPOCH          = 2026-01-02T19:19:02.542656
MEAN_MOTION    = 14.14076194
ECCENTRICITY   = .00200107
INCLINATION    = 71.0602
RA_OF_ASC_NODE = 155.7977
ARG_OF_PERICENTER = 297.7534
MEAN_ANOMALY   = 62.1558

EPHEMERIS_TYPE = 0
CLASSIFICATION_TYPE = U
NORAD_CAT_ID   = 22219
ELEMENT_SET_NO = 999
REV_AT_EPOCH   = 70906
BSTAR          = .23237556E-3
MEAN_MOTION_DOT = .396E-5
MEAN_MOTION_DDOT = 0

CCSDS_OMM_VERS = 2.0
CREATION_DATE  = 
ORIGINATOR     = 

OBJECT_NAME    = SL-16 R/B
OBJECT_ID      = 1992-076B
CENTER_NAME    = EARTH
REF_FRAME      = TEME
TIME_SYSTEM    = UTC
MEAN_ELEMENT_THEORY = SGP/SGP4

EPOCH          = 2026-01-02T23:12:49.313088
MEAN_MOTION    = 14.16845499
ECCENTRICITY   = .00137677
INCLINATION    = 71.0010
RA_OF_ASC_NODE = 326.8157
ARG_OF_PERICENTER = 205.2828
MEAN_ANOMALY   = 212.3063

EPHEMERIS_TYPE = 0
CLASSIFICATION_TYPE = U
NORAD_CAT_ID   = 22220
ELEMENT_SET_NO = 999
REV_AT_EPOCH   = 71252
BSTAR          = -.27630799E-4
MEAN_MOTION_DOT = -.103E-5
MEAN_MOTION_DDOT = 0

CCSDS_OMM_VERS = 2.0
CREATION_DATE  = 
ORIGINATOR     = 

OBJECT_NAME    = COSMOS 2221
OBJECT_ID      = 1992-080A
CENTER_NAME    = EARTH
REF_FRAME      = TEME
TIME_SYSTEM    = UTC
MEAN_ELEMENT_THEORY = SGP/SGP4

EPOCH          = 2026-01-02T22:57:46.301760
MEAN_MOTION    = 14.95869812
ECCENTRICITY   = .00160027
INCLINATION    = 82.5045
RA_OF_ASC_NODE = 342.0148
ARG_OF_PERICENTER = 57.2177
MEAN_ANOMALY   = 303.0584

EPHEMERIS_TYPE = 0
CLASSIFICATION_TYPE = U
NORAD_CAT_ID   = 22236
ELEMENT_SET_NO = 999
REV_AT_EPOCH   = 77096
BSTAR          = .38017787E-3
MEAN_MOTION_DOT = .4284E-4
MEAN_MOTION_DDOT = 0

CCSDS_OMM_VERS = 2.0
CREATION_DATE  = 
ORIGINATOR     = 

OBJECT_NAME    = SL-16 R/B
OBJECT_ID      = 1992-093B
CENTER_NAME    = EARTH
REF_FRAME      = TEME
TIME_SYSTEM    = UTC
MEAN_ELEMENT_THEORY = SGP/SGP4

EPOCH          = 2026-01-02T19:17:45.751200
MEAN_MOTION    = 14.15434505
ECCENTRICITY   = .00029718
INCLINATION    = 71.0212
RA_OF_ASC_NODE = 142.5785
ARG_OF_PERICENTER = 12.4413
MEAN_ANOMALY   = 347.6783

EPHEMERIS_TYPE = 0
CLASSIFICATION_TYPE = U
NORAD_CAT_ID   = 22285
ELEMENT_SET_NO = 999
REV_AT_EPOCH   = 70383
BSTAR          = -.39150457E-4
MEAN_MOTION_DOT = -.124E-5
MEAN_MOTION_DDOT = 0

CCSDS_OMM_VERS = 2.0
CREATION_DATE  = 
ORIGINATOR     = 

OBJECT_NAME    = COSMOS 2228
OBJECT_ID      = 1992-094A
CENTER_NAME    = EARTH
REF_FRAME      = TEME
TIME_SYSTEM    = UTC
MEAN_ELEMENT_THEORY = SGP/SGP4

EPOCH          = 2026-01-02T22:46:52.040352
MEAN_MOTION    = 14.96850580
ECCENTRICITY   = .00184565
INCLINATION    = 82.5195
RA_OF_ASC_NODE = 300.2405
ARG_OF_PERICENTER = 157.7413
MEAN_ANOMALY   = 202.4615

EPHEMERIS_TYPE = 0
CLASSIFICATION_TYPE = U
NORAD_CAT_ID   = 22286
ELEMENT_SET_NO = 999
REV_AT_EPOCH   = 76622
BSTAR          = .38808928E-3
MEAN_MOTION_DOT = .4488E-4
MEAN_MOTION_DDOT = 0

